      2.10          N: GNSS NAV DATA                        RINEX VERSION / TYPE
fic2rin                                 08/31/2018 00:10:10 PGM / RUN BY / DATE
                                                            END OF HEADER
31 18  8 30  7 59 44.0 9.712297469378e-05-2.614797267597e-12 0.000000000000e+00
    2.000000000000e+01 3.978125000000e+01 4.958420823844e-09-3.051654986776e+00
    2.199783921242e-06 8.829177124426e-03 4.315748810768e-06 5.153724565506e+03
    3.743840000000e+05-1.117587089539e-07-1.211453553286e+00-9.313225746155e-09
    9.619804142998e-01 2.991250000000e+02-1.169521827050e-01-8.272844597184e-09
    2.692969315838e-10 1.000000000000e+00 2.016000000000e+03 0.000000000000e+00
    2.400000000000e+00 0.000000000000e+00-1.350417733192e-08 2.000000000000e+01
    3.672060000000e+05 4.000000000000e+00
 1 18  8 30  8  0  0.0-8.217385038733e-05-4.433786671143e-12 0.000000000000e+00
    2.500000000000e+01 2.300000000000e+01 4.476972198148e-09-2.206793397643e+00
    1.266598701477e-06 8.096826612018e-03 4.533678293228e-06 5.153661220551e+03
    3.744000000000e+05 2.048909664154e-08 1.905279272564e+00-9.126961231232e-08
    9.720712370003e-01 2.985000000000e+02 6.877486961338e-01-8.122838348822e-09
    2.614394614315e-10 1.000000000000e+00 2.016000000000e+03 0.000000000000e+00
    2.400000000000e+00 0.000000000000e+00 5.587935447693e-09 2.500000000000e+01
    3.672060000000e+05 4.000000000000e+00
 2 18  8 30  8  0  0.0 1.309858635068e-05-1.114131009672e-11 0.000000000000e+00
    1.700000000000e+01 3.190625000000e+01 4.870917178966e-09-1.904634617231e+00
    1.799315214157e-06 1.801047404297e-02 4.146248102188e-06 5.153800390244e+03
    3.744000000000e+05 3.669410943985e-07 1.842161641312e+00 7.078051567078e-08
    9.511403478647e-01 2.943750000000e+02-1.834925690077e+00-8.198555788471e-09
    1.914365455291e-10 1.000000000000e+00 2.016000000000e+03 0.000000000000e+00
    2.400000000000e+00 0.000000000000e+00-2.048909664154e-08 1.700000000000e+01
    3.672060000000e+05 4.000000000000e+00
 9 18  8 30  8  0  0.0 5.089794285595e-04-1.705302565824e-12 0.000000000000e+00
    2.000000000000e+01 2.378125000000e+01 4.420541276145e-09 3.424613162256e-01
    1.119449734688e-06 9.709486039355e-04 1.184456050396e-05 5.153564556122e+03
    3.744000000000e+05 0.000000000000e+00-2.302082358811e+00-1.490116119385e-08
    9.527630809666e-01 1.431875000000e+02 1.777285057342e+00-8.022477025512e-09
    2.550106222160e-10 1.000000000000e+00 2.016000000000e+03 0.000000000000e+00
    2.400000000000e+00 0.000000000000e+00 9.313225746155e-10 2.000000000000e+01
    3.672060000000e+05 4.000000000000e+00
 8 18  8 30  8  0  0.0-1.133996993303e-04-1.250555214938e-12 0.000000000000e+00
    6.100000000000e+01 2.475000000000e+01 4.148387082688e-09 3.449570295992e-01
    1.123175024986e-06 3.494914388284e-03 1.173466444016e-05 5.153622192383e+03
    3.744000000000e+05 4.656612873077e-08 8.396439045503e-01-2.421438694000e-08
    9.696728764361e-01 1.573125000000e+02-4.029413456787e-01-7.897828976278e-09
    3.607293115380e-11 1.000000000000e+00 2.016000000000e+03 0.000000000000e+00
    2.400000000000e+00 0.000000000000e+00 5.122274160385e-09 6.100000000000e+01
    3.672060000000e+05 4.000000000000e+00
 5 18  8 30  8  0  0.0-2.560671418905e-06 4.547473508865e-13 0.000000000000e+00
    9.000000000000e+01-7.021875000000e+01 4.768055751518e-09 7.494527520696e-01
   -3.479421138763e-06 5.592337227426e-03 7.305294275284e-06 5.153774114609e+03
    3.744000000000e+05-1.080334186554e-07 2.925065254835e+00 5.587935447693e-08
    9.487403956456e-01 2.326562500000e+02 6.685786819914e-01-8.306417424198e-09
   -3.471573176386e-10 1.000000000000e+00 2.016000000000e+03 0.000000000000e+00
    2.400000000000e+00 0.000000000000e+00-1.117587089539e-08 9.000000000000e+01
    3.672060000000e+05 4.000000000000e+00
 7 18  8 30  8  0  0.0 1.329793594778e-04-6.593836587854e-12 0.000000000000e+00
    1.000000000000e+02 4.228125000000e+01 5.007351433429e-09-2.853124829016e+00
    2.022832632065e-06 1.206787652336e-02 4.816800355911e-06 5.153642259598e+03
    3.744000000000e+05-4.470348358154e-08-1.224365968991e+00-2.756714820862e-07
    9.573527450588e-01 2.880000000000e+02-2.497201319304e+00-8.292488272565e-09
    2.789401904071e-10 1.000000000000e+00 2.016000000000e+03 0.000000000000e+00
    3.400000000000e+00 0.000000000000e+00-1.117587089539e-08 1.000000000000e+02
    3.672060000000e+05 4.000000000000e+00
 6 18  8 30  8  0  0.0 3.701131790876e-04-4.774847184308e-12 0.000000000000e+00
    8.600000000000e+01 2.659375000000e+01 4.560189950216e-09-1.975581094082e+00
    1.318752765656e-06 9.728700388223e-04 4.662200808525e-06 5.153686166763e+03
    3.744000000000e+05 1.862645149231e-09 1.896956354178e+00 3.166496753693e-08
    9.717667788783e-01 2.971250000000e+02-1.084325461639e+00-8.253915237271e-09
    1.400058318049e-10 1.000000000000e+00 2.016000000000e+03 0.000000000000e+00
    2.400000000000e+00 0.000000000000e+00 4.656612873077e-09 8.600000000000e+01
    3.672060000000e+05 4.000000000000e+00
22 18  8 30  8  0  0.0-5.043586716056e-04-1.125499693444e-11 0.000000000000e+00
    2.800000000000e+01-7.471875000000e+01 5.376652530588e-09-7.557372374780e-01
   -3.794208168983e-06 7.136068656109e-03 7.133930921555e-06 5.153727787018e+03
    3.744000000000e+05-6.332993507385e-08 2.885133027474e+00 1.341104507446e-07
    9.260112349420e-01 2.249062500000e+02-1.490944472187e+00-8.693576408067e-09
   -2.678683006471e-10 1.000000000000e+00 2.016000000000e+03 0.000000000000e+00
    2.400000000000e+00 0.000000000000e+00-1.816079020500e-08 2.800000000000e+01
    3.672060000000e+05 4.000000000000e+00
25 18  8 30  8  0  0.0-6.393445655704e-04-5.798028723802e-12 0.000000000000e+00
    2.100000000000e+01-5.693750000000e+01 4.333037631267e-09 2.412082153544e+00
   -3.077089786530e-06 7.444273331203e-03 7.739290595055e-06 5.153600416183e+03
    3.744000000000e+05-7.823109626770e-08-1.907326142190e-01-1.098960638046e-07
    9.735104221595e-01 2.353750000000e+02 8.658417990892e-01-7.881042562771e-09
   -4.103742365913e-10 1.000000000000e+00 2.016000000000e+03 0.000000000000e+00
    2.400000000000e+00 0.000000000000e+00 5.587935447693e-09 2.100000000000e+01
    3.672060000000e+05 4.000000000000e+00
23 18  8 30  8  0  0.0-2.118614502251e-04 6.821210263297e-13 0.000000000000e+00
    2.100000000000e+01 3.418750000000e+01 4.646979279625e-09-1.383934797159e+00
    1.788139343262e-06 1.265070296358e-02 1.136399805546e-05 5.153747739792e+03
    3.744000000000e+05 3.073364496231e-07-2.304607726997e+00-1.676380634308e-08
    9.435825751331e-01 1.441562500000e+02-2.331500987460e+00-8.029620180196e-09
    3.189418566371e-10 1.000000000000e+00 2.016000000000e+03 0.000000000000e+00
    2.400000000000e+00 0.000000000000e+00-2.002343535423e-08 2.100000000000e+01
    3.672060000000e+05 4.000000000000e+00
15 18  8 30  8  0  0.0-3.472408279777e-04 1.023181539495e-12 0.000000000000e+00
    1.700000000000e+01 2.115625000000e+01 5.035566894431e-09-9.321878915845e-01
    1.281499862671e-06 1.055523368996e-02 1.051649451256e-05 5.153810174942e+03
    3.744000000000e+05 2.160668373108e-07-2.375202133594e+00 1.341104507446e-07
    9.283522725242e-01 1.560000000000e+02 7.018896967746e-01-8.337132989339e-09
    1.967939115420e-10 1.000000000000e+00 2.016000000000e+03 0.000000000000e+00
    2.400000000000e+00 0.000000000000e+00-1.071020960808e-08 1.700000000000e+01
    3.672060000000e+05 4.000000000000e+00
19 18  8 30  8  0  0.0-4.072915762663e-04 3.410605131648e-12 0.000000000000e+00
    1.600000000000e+01 2.825000000000e+01 3.971951161995e-09 2.756614679426e+00
    1.437962055206e-06 9.735764004290e-03 1.007132232189e-05 5.153725530624e+03
    3.744000000000e+05 8.754432201385e-08 9.502325603831e-01-1.527369022369e-07
    9.807485721604e-01 1.915625000000e+02 1.269984219529e+00-7.626746256023e-09
    7.000291590243e-11 1.000000000000e+00 2.016000000000e+03 0.000000000000e+00
    2.400000000000e+00 0.000000000000e+00-1.536682248116e-08 1.600000000000e+01
    3.672060000000e+05 4.000000000000e+00
24 18  8 30  8  0  0.0-5.466770380735e-05-5.684341886081e-13 0.000000000000e+00
    3.400000000000e+01 4.621875000000e+01 5.385581473943e-09-1.848714607298e+00
    2.235174179077e-06 7.152594858781e-03 4.343688488007e-06 5.153627830505e+03
    3.744000000000e+05 7.450580596924e-08-1.285752950600e+00-5.960464477539e-08
    9.404349006141e-01 2.842187500000e+02 5.344378584648e-01-8.563570992820e-09
    3.432285825624e-10 1.000000000000e+00 2.016000000000e+03 0.000000000000e+00
    2.400000000000e+00 0.000000000000e+00 2.793967723846e-09 3.400000000000e+01
    3.672060000000e+05 4.000000000000e+00
29 18  8 30  8  0  0.0 3.863177262247e-04-7.275957614183e-12 0.000000000000e+00
    1.700000000000e+01 4.231250000000e+01 3.844088693152e-09 6.106682520524e-01
    2.104789018631e-06 8.222003234550e-04 1.076608896255e-05 5.153642110825e+03
    3.744000000000e+05-3.166496753693e-08 9.141784952038e-01-1.303851604462e-08
    9.845035039741e-01 1.852812500000e+02 1.555511735296e+00-7.679962758418e-09
    1.007184810433e-10 1.000000000000e+00 2.016000000000e+03 0.000000000000e+00
    2.400000000000e+00 0.000000000000e+00-1.024454832077e-08 1.700000000000e+01
    3.672060000000e+05 4.000000000000e+00
18 18  8 30  8  0  0.0 5.146674811840e-05 4.320099833421e-12 0.000000000000e+00
    4.000000000000e+01 3.359375000000e+01 4.915919053475e-09-2.436657345702e+00
    1.821666955948e-06 1.495979097672e-02 4.122033715248e-06 5.153629220963e+03
    3.744000000000e+05 1.806765794754e-07 1.856042412234e+00-4.470348358154e-08
    9.504824896966e-01 2.935937500000e+02 1.341915102733e+00-8.209984835965e-09
    2.739399821284e-10 1.000000000000e+00 2.016000000000e+03 0.000000000000e+00
    2.400000000000e+00 0.000000000000e+00-6.519258022308e-09 4.000000000000e+01
    3.672060000000e+05 4.000000000000e+00
